start=new Date('2023-04-25T00:00:00.000Z').valueOf();
sats=[{"ARG_OF_PERICENTER":"96.1082","PERIAPSIS":"546.180","MEAN_ELEMENT_THEORY":"SGP4","SITE":"AFETR","RA_OF_ASC_NODE":"77.1777","CENTER_NAME":"EARTH","TIME_SYSTEM":"UTC","MEAN_MOTION":"15.06456461","INCLINATION":"53.0545","OBJECT_NAME":"STARLINK-2008","MEAN_MOTION_DOT":"0.00076292","EPOCH":"2023-04-24T06:15:18.921888","PERIOD":"95.589","RCS_SIZE":"LARGE","DECAY_DATE":null,"FILE":"3893330","OBJECT_TYPE":"PAYLOAD","BSTAR":"0.00507790000000","NORAD_CAT_ID":"47603","EPHEMERIS_TYPE":"0","GP_ID":"230697029","MEAN_MOTION_DDOT":"0.0000000000000","REF_FRAME":"TEME","APOAPSIS":"547.901","TLE_LINE2":"2 47603  53.0545  77.1777 0001242  96.1082 264.0049 15.06456461122182","OBJECT_ID":"2021-009BH","REV_AT_EPOCH":"12218","MEAN_ANOMALY":"264.0049","TLE_LINE1":"1 47603U 21009BH  23114.26063567  .00076292  00000-0  50779-2 0  9994","ECCENTRICITY":"0.00012420","COUNTRY_CODE":"US","ELEMENT_SET_NO":"999","SEMIMAJOR_AXIS":"6925.176","LAUNCH_DATE":"2021-02-04","CLASSIFICATION_TYPE":"U"},{"MEAN_MOTION_DDOT":"0.0000000000000","APOAPSIS":"547.960","REF_FRAME":"TEME","REV_AT_EPOCH":"12261","OBJECT_ID":"2021-009BJ","TLE_LINE2":"2 47604  53.0551  47.1967 0001489 103.8607 256.2547 15.06492935122610","FILE":"3893330","DECAY_DATE":null,"BSTAR":"0.00820270000000","OBJECT_TYPE":"PAYLOAD","EPHEMERIS_TYPE":"0","NORAD_CAT_ID":"47604","GP_ID":"230697779","ELEMENT_SET_NO":"999","SEMIMAJOR_AXIS":"6925.064","LAUNCH_DATE":"2021-02-04","CLASSIFICATION_TYPE":"U","MEAN_ANOMALY":"256.2547","ECCENTRICITY":"0.00014890","TLE_LINE1":"1 47604U 21009BJ  23114.25602987  .00124383  00000-0  82027-2 0  9995","COUNTRY_CODE":"US","SITE":"AFETR","RA_OF_ASC_NODE":"47.1967","CENTER_NAME":"EARTH","TIME_SYSTEM":"UTC","PERIAPSIS":"545.898","MEAN_ELEMENT_THEORY":"SGP4","ARG_OF_PERICENTER":"103.8607","PERIOD":"95.586","RCS_SIZE":"LARGE","INCLINATION":"53.0551","OBJECT_NAME":"STARLINK-2021","MEAN_MOTION":"15.06492935","MEAN_MOTION_DOT":"0.00124383","EPOCH":"2023-04-24T06:08:40.980768"},{"PERIOD":"95.575","RCS_SIZE":"LARGE","OBJECT_NAME":"STARLINK-2024","INCLINATION":"53.0551","MEAN_MOTION":"15.06675274","EPOCH":"2023-04-24T06:13:56.988768","MEAN_MOTION_DOT":"0.00302307","RA_OF_ASC_NODE":"47.1814","SITE":"AFETR","TIME_SYSTEM":"UTC","CENTER_NAME":"EARTH","PERIAPSIS":"545.480","ARG_OF_PERICENTER":"158.2791","MEAN_ELEMENT_THEORY":"SGP4","SEMIMAJOR_AXIS":"6924.505","ELEMENT_SET_NO":"999","CLASSIFICATION_TYPE":"U","LAUNCH_DATE":"2021-02-04","MEAN_ANOMALY":"201.8253","COUNTRY_CODE":"US","ECCENTRICITY":"0.00012850","TLE_LINE1":"1 47606U 21009BL  23114.25968737  .00302307  00000-0  19316-1 0  9999","MEAN_MOTION_DDOT":"0.0000000000000","REV_AT_EPOCH":"12261","OBJECT_ID":"2021-009BL","TLE_LINE2":"2 47606  53.0551  47.1814 0001285 158.2791 201.8253 15.06675274122614","APOAPSIS":"547.260","REF_FRAME":"TEME","FILE":"3893330","DECAY_DATE":null,"GP_ID":"230698531","OBJECT_TYPE":"PAYLOAD","BSTAR":"0.01931600000000","NORAD_CAT_ID":"47606","EPHEMERIS_TYPE":"0"},{"MEAN_MOTION_DOT":"0.00130647","EPOCH":"2023-04-24T05:37:31.433376","MEAN_MOTION":"15.07233715","OBJECT_NAME":"STARLINK-2025","INCLINATION":"53.0559","RCS_SIZE":"LARGE","PERIOD":"95.539","PERIAPSIS":"543.773","ARG_OF_PERICENTER":"126.6452","MEAN_ELEMENT_THEORY":"SGP4","CENTER_NAME":"EARTH","TIME_SYSTEM":"UTC","SITE":"AFETR","RA_OF_ASC_NODE":"47.2808","TLE_LINE1":"1 47607U 21009BM  23114.23439159  .00130647  00000-0  84366-2 0  9993","ECCENTRICITY":"0.00012800","COUNTRY_CODE":"US","MEAN_ANOMALY":"233.4656","LAUNCH_DATE":"2021-02-04","CLASSIFICATION_TYPE":"U","ELEMENT_SET_NO":"999","SEMIMAJOR_AXIS":"6922.795","NORAD_CAT_ID":"47607","OBJECT_TYPE":"PAYLOAD","BSTAR":"0.00843660000000","EPHEMERIS_TYPE":"0","GP_ID":"230697280","DECAY_DATE":null,"FILE":"3893330","APOAPSIS":"545.546","REF_FRAME":"TEME","TLE_LINE2":"2 47607  53.0559  47.2808 0001280 126.6452 233.4656 15.07233715122603","OBJECT_ID":"2021-009BM","REV_AT_EPOCH":"12260","MEAN_MOTION_DDOT":"0.0000000000000"},{"MEAN_MOTION":"15.06431415","OBJECT_NAME":"STARLINK-1528","INCLINATION":"53.0530","MEAN_MOTION_DOT":"0.00014221","EPOCH":"2023-04-24T09:17:05.769312","PERIOD":"95.590","RCS_SIZE":"LARGE","MEAN_ELEMENT_THEORY":"SGP4","PERIAPSIS":"546.251","ARG_OF_PERICENTER":"80.9561","SITE":"AFETR","RA_OF_ASC_NODE":"106.6076","CENTER_NAME":"EARTH","TIME_SYSTEM":"UTC","MEAN_ANOMALY":"279.1569","TLE_LINE1":"1 47620U 21012A   23114.38687233  .00014221  00000-0  97087-3 0  9990","ECCENTRICITY":"0.00012510","COUNTRY_CODE":"US","ELEMENT_SET_NO":"999","SEMIMAJOR_AXIS":"6925.252","LAUNCH_DATE":"2021-02-16","CLASSIFICATION_TYPE":"U","FILE":"3893330","DECAY_DATE":null,"BSTAR":"0.00097087000000","OBJECT_TYPE":"PAYLOAD","NORAD_CAT_ID":"47620","EPHEMERIS_TYPE":"0","GP_ID":"230697780","MEAN_MOTION_DDOT":"0.0000000000000","APOAPSIS":"547.984","REF_FRAME":"TEME","TLE_LINE2":"2 47620  53.0530 106.6076 0001251  80.9561 279.1569 15.06431415121677","OBJECT_ID":"2021-012A","REV_AT_EPOCH":"12167"},{"OBJECT_TYPE":"PAYLOAD","NORAD_CAT_ID":"47621","BSTAR":"0.00031276000000","EPHEMERIS_TYPE":"0","GP_ID":"230698532","DECAY_DATE":null,"FILE":"3893330","REF_FRAME":"TEME","APOAPSIS":"548.315","REV_AT_EPOCH":"12169","OBJECT_ID":"2021-012B","TLE_LINE2":"2 47621  53.0533 106.3494 0001635  77.2927 282.8245 15.06409981121690","MEAN_MOTION_DDOT":"0.0000000000000","ECCENTRICITY":"0.00016350","TLE_LINE1":"1 47621U 21012B   23114.44585148  .00004381  00000-0  31276-3 0  9994","COUNTRY_CODE":"US","MEAN_ANOMALY":"282.8245","LAUNCH_DATE":"2021-02-16","CLASSIFICATION_TYPE":"U","ELEMENT_SET_NO":"999","SEMIMAJOR_AXIS":"6925.318","MEAN_ELEMENT_THEORY":"SGP4","PERIAPSIS":"546.051","ARG_OF_PERICENTER":"77.2927","CENTER_NAME":"EARTH","TIME_SYSTEM":"UTC","SITE":"AFETR","RA_OF_ASC_NODE":"106.3494","MEAN_MOTION_DOT":"0.00004381","EPOCH":"2023-04-24T10:42:01.567872","INCLINATION":"53.0533","OBJECT_NAME":"STARLINK-1609","MEAN_MOTION":"15.06409981","RCS_SIZE":"LARGE","PERIOD":"95.592"},{"FILE":"3893330","DECAY_DATE":null,"OBJECT_TYPE":"PAYLOAD","NORAD_CAT_ID":"47622","BSTAR":"0.00064561000000","EPHEMERIS_TYPE":"0","GP_ID":"230697281","MEAN_MOTION_DDOT":"0.0000000000000","REF_FRAME":"TEME","APOAPSIS":"548.148","OBJECT_ID":"2021-012C","REV_AT_EPOCH":"12165","TLE_LINE2":"2 47622  53.0524 107.2479 0001447  87.7261 272.3894 15.06422073121659","MEAN_ANOMALY":"272.3894","ECCENTRICITY":"0.00014470","TLE_LINE1":"1 47622U 21012C   23114.24217701  .00009354  00000-0  64561-3 0  9998","COUNTRY_CODE":"US","ELEMENT_SET_NO":"999","SEMIMAJOR_AXIS":"6925.281","LAUNCH_DATE":"2021-02-16","CLASSIFICATION_TYPE":"U","ARG_OF_PERICENTER":"87.7261","PERIAPSIS":"546.144","MEAN_ELEMENT_THEORY":"SGP4","SITE":"AFETR","RA_OF_ASC_NODE":"107.2479","CENTER_NAME":"EARTH","TIME_SYSTEM":"UTC","OBJECT_NAME":"STARLINK-1645","INCLINATION":"53.0524","MEAN_MOTION":"15.06422073","MEAN_MOTION_DOT":"0.00009354","EPOCH":"2023-04-24T05:48:44.093664","PERIOD":"95.591","RCS_SIZE":"LARGE"},{"LAUNCH_DATE":"2021-02-16","CLASSIFICATION_TYPE":"U","SEMIMAJOR_AXIS":"6925.111","ELEMENT_SET_NO":"999","COUNTRY_CODE":"US","TLE_LINE1":"1 47623U 21012D   23114.18830220  .00118060  00000-0  77969-2 0  9999","ECCENTRICITY":"0.00011570","MEAN_ANOMALY":"253.6810","TLE_LINE2":"2 47623  53.0544  42.4992 0001157 106.4306 253.6810 15.06477493122566","OBJECT_ID":"2021-012D","REV_AT_EPOCH":"12256","APOAPSIS":"547.777","REF_FRAME":"TEME","MEAN_MOTION_DDOT":"0.0000000000000","GP_ID":"230697531","NORAD_CAT_ID":"47623","OBJECT_TYPE":"PAYLOAD","BSTAR":"0.00779690000000","EPHEMERIS_TYPE":"0","FILE":"3893330","DECAY_DATE":null,"RCS_SIZE":"LARGE","PERIOD":"95.587","EPOCH":"2023-04-24T04:31:09.310080","MEAN_MOTION_DOT":"0.00118060","MEAN_MOTION":"15.06477493","OBJECT_NAME":"STARLINK-1655","INCLINATION":"53.0544","TIME_SYSTEM":"UTC","CENTER_NAME":"EARTH","RA_OF_ASC_NODE":"42.4992","SITE":"AFETR","PERIAPSIS":"546.175","MEAN_ELEMENT_THEORY":"SGP4","ARG_OF_PERICENTER":"106.4306"},{"MEAN_ELEMENT_THEORY":"SGP4","PERIAPSIS":"546.185","ARG_OF_PERICENTER":"114.4535","SITE":"AFETR","RA_OF_ASC_NODE":"86.9302","CENTER_NAME":"EARTH","TIME_SYSTEM":"UTC","INCLINATION":"53.0527","OBJECT_NAME":"STARLINK-1669","MEAN_MOTION":"15.06450311","MEAN_MOTION_DOT":"0.00052186","EPOCH":"2023-04-24T07:33:35.857440","PERIOD":"95.589","RCS_SIZE":"LARGE","DECAY_DATE":null,"FILE":"3893330","OBJECT_TYPE":"PAYLOAD","BSTAR":"0.00349180000000","NORAD_CAT_ID":"47624","EPHEMERIS_TYPE":"0","GP_ID":"230698281","MEAN_MOTION_DDOT":"0.0000000000000","REF_FRAME":"TEME","APOAPSIS":"547.933","OBJECT_ID":"2021-012E","REV_AT_EPOCH":"12196","TLE_LINE2":"2 47624  53.0527  86.9302 0001262 114.4535 245.6586 15.06450311121960","MEAN_ANOMALY":"245.6586","ECCENTRICITY":"0.00012620","TLE_LINE1":"1 47624U 21012E   23114.31499835  .00052186  00000-0  34918-2 0  9991","COUNTRY_CODE":"US","ELEMENT_SET_NO":"999","SEMIMAJOR_AXIS":"6925.194","LAUNCH_DATE":"2021-02-16","CLASSIFICATION_TYPE":"U"},{"LAUNCH_DATE":"2021-02-16","CLASSIFICATION_TYPE":"U","SEMIMAJOR_AXIS":"6925.278","ELEMENT_SET_NO":"999","COUNTRY_CODE":"US","ECCENTRICITY":"0.00012910","TLE_LINE1":"1 47625U 21012F   23114.38223717  .00005987  00000-0  42025-3 0  9999","MEAN_ANOMALY":"262.5793","REV_AT_EPOCH":"12167","OBJECT_ID":"2021-012F","TLE_LINE2":"2 47625  53.0551 106.6216 0001291  97.5343 262.5793 15.06423079121679","REF_FRAME":"TEME","APOAPSIS":"548.037","MEAN_MOTION_DDOT":"0.0000000000000","GP_ID":"230698032","EPHEMERIS_TYPE":"0","OBJECT_TYPE":"PAYLOAD","BSTAR":"0.00042025000000","NORAD_CAT_ID":"47625","FILE":"3893330","DECAY_DATE":null,"RCS_SIZE":"LARGE","PERIOD":"95.591","EPOCH":"2023-04-24T09:10:25.291488","MEAN_MOTION_DOT":"0.00005987","INCLINATION":"53.0551","OBJECT_NAME":"STARLINK-1704","MEAN_MOTION":"15.06423079","TIME_SYSTEM":"UTC","CENTER_NAME":"EARTH","RA_OF_ASC_NODE":"106.6216","SITE":"AFETR","PERIAPSIS":"546.249","MEAN_ELEMENT_THEORY":"SGP4","ARG_OF_PERICENTER":"97.5343"}];
